#aV2012  1  8  0  0   .00000000      96 DD+AD WGS84 FIT  NGA
## 1670       .00000000   900.00000000 55934  .0000000000000
+   31     1  2  3  4  5  6  7  8  9 10 11 12 13 14 15 16 17
+         18 19 20 21 22 23 25 26 27 28 29 30 31 32  0  0  0
+          0  0  0  0  0  0  0  0  0  0  0  0  0  0  0  0  0
+          0  0  0  0  0  0  0  0  0  0  0  0  0  0  0  0  0
+          0  0  0  0  0  0  0  0  0  0  0  0  0  0  0  0  0
++         0  0  0  0  0  0  0  0  0  0  0  0  0  0  0  0  0
++         0  0  0  0  0  0  0  0  0  0  0  0  0  0  0  0  0
++         0  0  0  0  0  0  0  0  0  0  0  0  0  0  0  0  0
++         0  0  0  0  0  0  0  0  0  0  0  0  0  0  0  0  0
++         0  0  0  0  0  0  0  0  0  0  0  0  0  0  0  0  0
%c cc cc ccc ccc cccc cccc cccc cccc ccccc ccccc ccccc ccccc
%c cc cc ccc ccc cccc cccc cccc cccc ccccc ccccc ccccc ccccc
%f  0.0000000  0.000000000  0.00000000000  0.000000000000000
%f  0.0000000  0.000000000  0.00000000000  0.000000000000000
%i    0    0    0    0      0      0      0      0         0
%i    0    0    0    0      0      0      0      0         0
/*      NGA, ST. LOUIS,MO.                                  
/*   EPHEMERIS COMPUTED FROM  3 DAYS OF DATA                
/* CCCCCCCCCCCCCCCCCCCCCCCCCCCCCCCCCCCCCCCCCCCCCCCCCCCCCCCCC
/* CCCCCCCCCCCCCCCCCCCCCCCCCCCCCCCCCCCCCCCCCCCCCCCCCCCCCCCCC
*  2012  1  8  2  0   .00000000                                                 
P  1 -22003.158977 -11971.593602   8832.570510    172.963168                    
V  1  -6466.337168  -9553.865751 -28988.337872       .135048                    
P  2  10595.361554  21519.690699  12019.167632    373.740813                    
V  2 -12804.325248  -8199.745679  25658.330052       .016789                    
P  3  -5158.540062 -15279.354891 -21548.182338    819.163975                    
V  3  24237.084150 -10570.531788   2017.802228       .050210                    
P  4  -1675.093576  17839.475713  19263.538563     56.835039                    
V  4 -19515.863107 -15975.104813  13262.538065       .113730                    
P  5   4084.701487  22816.751184 -12877.155042   -267.844652                    
V  5  -6232.743230  15366.368926  25418.219129      -.046760                    
P  6     83.053085 -16284.149073 -20810.115592     22.533569                    
V  6  25554.323417  -8328.125114   6844.091819       .031592                    
P  7 -18505.903289    153.419770 -19119.503016     48.467702                    
V  7 -16699.402785 -17552.472094  15767.342257       .025390                    
P  8 -10682.976457   9629.962367 -22262.709574       .334730                    
V  8 -18943.389632 -21061.914049   -570.146363       .000145                    
P  9  21151.962034  15189.806296   4594.499921    130.328583                    
V  9   3377.577259   5972.379625 -31575.248873       .025603                    
P 10  -9504.633285  24123.620478   4434.367180    -24.882280                    
V 10  -1949.828795  -6704.292420  31019.239702      -.013176                    
P 11 -23384.824851 -12960.080999   -588.923072   -220.762778                    
V 11   2537.601670  -4073.397603 -29839.039718      -.036405                    
P 12  12940.056560   8300.182979  21688.153920     45.290730                    
V 12  -7173.411411  26489.604665  -5685.628273       .022360                    
P 13 -26109.423601   5074.953135    520.223266    231.941345                    
V 13    422.701390  -2021.516109  32275.913459      -.020600                    
P 14  15187.111182 -14696.353160  16177.977122    189.126554                    
V 14  20040.735813  -3135.770545 -22035.787172       .015768                    
P 15  19448.681845   6521.091683 -16980.222199    -95.056914                    
V 15 -19892.726859   8430.168211 -19343.381261       .007505                    
P 16  -2338.646580 -23123.882012 -12552.525943   -217.789157                    
V 16   6274.042232 -14915.111932  26565.025048      -.017871                    
P 17 -17033.753850  14675.418378  14101.927303    156.097386                    
V 17 -17714.826271   2389.467383 -24390.075488      -.021036                    
P 18  15934.259702 -12311.083496 -16796.055781    175.688848                    
V 18  -2830.221405  22190.050689 -18937.135673       .018384                    
P 19 -16784.735900  -9643.457427 -18382.344408   -223.327398                    
V 19  22380.239403  -6019.443092 -16943.577729      -.038843                    
P 20 -14830.305756  -5919.425354  21071.109521     59.602882                    
V 20   5517.352934 -26676.536829  -3510.597120       .008047                    
P 21  16700.646929  -4489.850869 -19846.515004   -196.118888                    
V 21  18218.110703  18819.899182  10237.675552      -.025696                    
P 22  10323.022370 -23703.939386  -5647.714780    143.015450                    
V 22   1886.805962   8154.305251 -29971.442105       .000196                    
P 23 -24483.711341   -741.439643  10736.881245    243.856361                    
V 23  12351.492447  -5779.698168  27483.426487      -.033164                    
P 25  15761.891687  -4575.012413  20852.025790     30.942567                    
V 25  -5004.805788  26054.831135   9526.926551       .002332                    
P 26   6878.815861  13681.140862 -22344.217121   -290.863678                    
V 26 -26206.308905   5662.356392  -4352.161909      -.140745                    
P 27  19859.484570  17928.764300   -821.183936    344.019863                    
V 27  -2554.974685    190.648088 -31905.386576       .040277                    
P 28 -11960.692780  21913.778111  -8152.293583    100.602220                    
V 28    712.943155 -11399.926011 -29947.959095       .035967                    
P 29  25969.775492  -4972.730296   2338.222036    273.091459                    
V 29  -2117.356668   3396.077452  31646.884060       .033693                    
P 30   1434.718275 -26396.076559  -2864.458526     -1.921470                    
V 30   3258.806987  -2810.691649  31428.849437      -.127846                    
P 31   -769.325456 -18561.034625  19095.624035    192.748780                    
V 31  17952.912200  15740.273742  16420.467450       .048410                    
P 32  -9854.630710 -15152.233131  19840.057861   -389.347602                    
V 32   8640.657454 -23029.632673 -12995.480155      -.056896                    
EOF
